{
  "type": "FeatureCollection",
  "features": [
    {
      "type": "Feature",
      "properties": {
        "norad_id": 47074,
        "name": "COSMOS 2251 DEB",
        "group": "cosmos-2251-debris",
        "lat": 61.76719870696846,
        "lon": 86.32497600587949,
        "alt_km": 854.455127578196,
        "timestamp": "2025-12-18T08:58:43.813469+00:00",
        "meta_object_name": "COSMOS 2251 DEB",
        "meta_object_id": "1993-036BYE",
        "meta_epoch": "2025-12-16T13:32:26.153376",
        "meta_mean_motion": 14.35650419,
        "meta_eccentricity": 0.01449048,
        "meta_inclination": 74.0928,
        "meta_ra_of_asc_node": 301.7157,
        "meta_arg_of_pericenter": 328.8455,
        "meta_mean_anomaly": 153.2821,
        "meta_ephemeris_type": 0,
        "meta_classification_type": "U",
        "meta_norad_cat_id": 47074,
        "meta_element_set_no": 999,
        "meta_rev_at_epoch": 2737,
        "meta_bstar": 0.0011411657,
        "meta_mean_motion_dot": 3.683e-05,
        "meta_mean_motion_ddot": 0,
        "tle_line1": "1 47074U 93036BYE 25350.56419159  .00003683  00000+0  11412-2 0  9998",
        "tle_line2": "2 47074  74.0928 301.7157 0144904 328.8455 153.2821 14.35650419 27374"
      },
      "geometry": {
        "type": "Point",
        "coordinates": [
          86.32497600587949,
          61.76719870696846
        ]
      }
    },
    {
      "type": "Feature",
      "properties": {
        "norad_id": 47116,
        "name": "COSMOS 2251 DEB",
        "group": "cosmos-2251-debris",
        "lat": 27.960893677962186,
        "lon": 40.54087070227397,
        "alt_km": 584.8682116194868,
        "timestamp": "2025-12-18T08:58:43.813480+00:00",
        "meta_object_name": "COSMOS 2251 DEB",
        "meta_object_id": "1993-036BYJ",
        "meta_epoch": "2025-12-15T10:35:15.431712",
        "meta_mean_motion": 14.98340246,
        "meta_eccentricity": 0.00212808,
        "meta_inclination": 74.0234,
        "meta_ra_of_asc_node": 235.2363,
        "meta_arg_of_pericenter": 329.1106,
        "meta_mean_anomaly": 207.4112,
        "meta_ephemeris_type": 0,
        "meta_classification_type": "U",
        "meta_norad_cat_id": 47116,
        "meta_element_set_no": 999,
        "meta_rev_at_epoch": 59551,
        "meta_bstar": 0.0012172499,
        "meta_mean_motion_dot": 0.00014561,
        "meta_mean_motion_ddot": 0,
        "tle_line1": "1 47116U 93036BYJ 25349.44115083  .00014561  00000+0  12172-2 0  9990",
        "tle_line2": "2 47116  74.0234 235.2363 0021280 329.1106 207.4112 14.98340246595513"
      },
      "geometry": {
        "type": "Point",
        "coordinates": [
          40.54087070227397,
          27.960893677962186
        ]
      }
    },
    {
      "type": "Feature",
      "properties": {
        "norad_id": 53093,
        "name": "COSMOS 2251 DEB",
        "group": "cosmos-2251-debris",
        "lat": -73.98553453128174,
        "lon": -154.7572325041787,
        "alt_km": 760.6138929963017,
        "timestamp": "2025-12-18T08:58:43.813490+00:00",
        "meta_object_name": "COSMOS 2251 DEB",
        "meta_object_id": "1993-036BYP",
        "meta_epoch": "2025-12-17T20:04:05.874240",
        "meta_mean_motion": 14.41907846,
        "meta_eccentricity": 0.00195775,
        "meta_inclination": 74.0368,
        "meta_ra_of_asc_node": 292.0083,
        "meta_arg_of_pericenter": 8.3969,
        "meta_mean_anomaly": 351.751,
        "meta_ephemeris_type": 0,
        "meta_classification_type": "U",
        "meta_norad_cat_id": 53093,
        "meta_element_set_no": 999,
        "meta_rev_at_epoch": 17799,
        "meta_bstar": 0.00064483157,
        "meta_mean_motion_dot": 2.09e-05,
        "meta_mean_motion_ddot": 0,
        "tle_line1": "1 53093U 93036BYP 25351.83617910  .00002090  00000+0  64483-3 0  9990",
        "tle_line2": "2 53093  74.0368 292.0083 0019577   8.3969 351.7510 14.41907846177997"
      },
      "geometry": {
        "type": "Point",
        "coordinates": [
          -154.7572325041787,
          -73.98553453128174
        ]
      }
    }
  ]
}